[{"OBJECT_NAME":"STARLINK-5737","OBJECT_ID":"2023-020B","EPOCH":"2025-09-06T19:18:46.793664","MEAN_MOTION":15.02537595,"ECCENTRICITY":0.00012974,"INCLINATION":43.0034,"RA_OF_ASC_NODE":284.217,"ARG_OF_PERICENTER":268.9582,"MEAN_ANOMALY":91.1111,"EPHEMERIS_TYPE":0,"CLASSIFICATION_TYPE":"U","NORAD_CAT_ID":55570,"ELEMENT_SET_NO":999,"REV_AT_EPOCH":14125,"BSTAR":8.7128746e-5,"MEAN_MOTION_DOT":9.74e-6,"MEAN_MOTION_DDOT":0},{"OBJECT_NAME":"STARLINK-5739","OBJECT_ID":"2023-020C","EPOCH":"2025-09-06T19:10:46.912512","MEAN_MOTION":15.02538876,"ECCENTRICITY":0.00015146,"INCLINATION":43.004,"RA_OF_ASC_NODE":284.1756,"ARG_OF_PERICENTER":273.397,"MEAN_ANOMALY":86.6699,"EPHEMERIS_TYPE":0,"CLASSIFICATION_TYPE":"U","NORAD_CAT_ID":55571,"ELEMENT_SET_NO":999,"REV_AT_EPOCH":14125,"BSTAR":0.00011000966,"MEAN_MOTION_DOT":1.283e-5,"MEAN_MOTION_DDOT":0},{"OBJECT_NAME":"STARLINK-5732","OBJECT_ID":"2023-020D","EPOCH":"2025-09-06T19:04:23.757024","MEAN_MOTION":15.02535642,"ECCENTRICITY":0.00012392,"INCLINATION":43.0036,"RA_OF_ASC_NODE":284.1402,"ARG_OF_PERICENTER":267.3917,"MEAN_ANOMALY":92.6784,"EPHEMERIS_TYPE":0,"CLASSIFICATION_TYPE":"U","NORAD_CAT_ID":55572,"ELEMENT_SET_NO":999,"REV_AT_EPOCH":14125,"BSTAR":6.3870271e-5,"MEAN_MOTION_DOT":6.59e-6,"MEAN_MOTION_DDOT":0},{"OBJECT_NAME":"STARLINK-5738","OBJECT_ID":"2023-020E","EPOCH":"2025-09-06T19:05:59.307648","MEAN_MOTION":15.0254009,"ECCENTRICITY":0.00013012,"INCLINATION":43.0026,"RA_OF_ASC_NODE":284.1512,"ARG_OF_PERICENTER":267.1505,"MEAN_ANOMALY":92.9189,"EPHEMERIS_TYPE":0,"CLASSIFICATION_TYPE":"U","NORAD_CAT_ID":55573,"ELEMENT_SET_NO":999,"REV_AT_EPOCH":14125,"BSTAR":8.4081892e-5,"MEAN_MOTION_DOT":9.32e-6,"MEAN_MOTION_DDOT":0},{"OBJECT_NAME":"STARLINK-5747","OBJECT_ID":"2023-020F","EPOCH":"2025-09-06T18:51:36.639072","MEAN_MOTION":15.02533814,"ECCENTRICITY":0.0001497,"INCLINATION":43.0032,"RA_OF_ASC_NODE":284.0745,"ARG_OF_PERICENTER":271.1674,"MEAN_ANOMALY":88.8997,"EPHEMERIS_TYPE":0,"CLASSIFICATION_TYPE":"U","NORAD_CAT_ID":55574,"ELEMENT_SET_NO":999,"REV_AT_EPOCH":14125,"BSTAR":4.0056939e-5,"MEAN_MOTION_DOT":3.37e-6,"MEAN_MOTION_DDOT":0},{"OBJECT_NAME":"STARLINK-5745","OBJECT_ID":"2023-020G","EPOCH":"2025-09-06T18:59:36.014784","MEAN_MOTION":15.02538562,"ECCENTRICITY":0.00014353,"INCLINATION":43.0034,"RA_OF_ASC_NODE":284.114,"ARG_OF_PERICENTER":271.493,"MEAN_ANOMALY":88.5748,"EPHEMERIS_TYPE":0,"CLASSIFICATION_TYPE":"U","NORAD_CAT_ID":55575,"ELEMENT_SET_NO":999,"REV_AT_EPOCH":14125,"BSTAR":2.1876119e-5,"MEAN_MOTION_DOT":9.2e-7,"MEAN_MOTION_DDOT":0},{"OBJECT_NAME":"STARLINK-5751","OBJECT_ID":"2023-020H","EPOCH":"2025-09-06T10:23:21.738336","MEAN_MOTION":15.02523289,"ECCENTRICITY":0.00011958,"INCLINATION":43.0058,"RA_OF_ASC_NODE":259.7376,"ARG_OF_PERICENTER":266.3589,"MEAN_ANOMALY":93.7116,"EPHEMERIS_TYPE":0,"CLASSIFICATION_TYPE":"U","NORAD_CAT_ID":55576,"ELEMENT_SET_NO":999,"REV_AT_EPOCH":14150,"BSTAR":3.7041267e-5,"MEAN_MOTION_DOT":2.97e-6,"MEAN_MOTION_DDOT":0},{"OBJECT_NAME":"STARLINK-5752","OBJECT_ID":"2023-020J","EPOCH":"2025-09-06T18:54:47.927808","MEAN_MOTION":15.02537687,"ECCENTRICITY":0.00013156,"INCLINATION":43.0033,"RA_OF_ASC_NODE":284.0252,"ARG_OF_PERICENTER":263.5547,"MEAN_ANOMALY":96.5145,"EPHEMERIS_TYPE":0,"CLASSIFICATION_TYPE":"U","NORAD_CAT_ID":55577,"ELEMENT_SET_NO":999,"REV_AT_EPOCH":14125,"BSTAR":0.00015321166,"MEAN_MOTION_DOT":1.867e-5,"MEAN_MOTION_DDOT":0},{"OBJECT_NAME":"STARLINK-5754","OBJECT_ID":"2023-020L","EPOCH":"2025-09-06T13:38:51.054144","MEAN_MOTION":15.02535358,"ECCENTRICITY":0.00012154,"INCLINATION":43.0035,"RA_OF_ASC_NODE":285.0262,"ARG_OF_PERICENTER":265.7648,"MEAN_ANOMALY":94.3056,"EPHEMERIS_TYPE":0,"CLASSIFICATION_TYPE":"U","NORAD_CAT_ID":55579,"ELEMENT_SET_NO":999,"REV_AT_EPOCH":14122,"BSTAR":6.5168574e-5,"MEAN_MOTION_DOT":6.77e-6,"MEAN_MOTION_DDOT":0},{"OBJECT_NAME":"STARLINK-5757","OBJECT_ID":"2023-020M","EPOCH":"2025-09-06T11:55:52.611744","MEAN_MOTION":15.02535685,"ECCENTRICITY":0.00011989,"INCLINATION":43.0033,"RA_OF_ASC_NODE":259.3596,"ARG_OF_PERICENTER":266.1858,"MEAN_ANOMALY":93.8847,"EPHEMERIS_TYPE":0,"CLASSIFICATION_TYPE":"U","NORAD_CAT_ID":55580,"ELEMENT_SET_NO":999,"REV_AT_EPOCH":14151,"BSTAR":6.3250471e-5,"MEAN_MOTION_DOT":6.51e-6,"MEAN_MOTION_DDOT":0},{"OBJECT_NAME":"STARLINK-5753","OBJECT_ID":"2023-020N","EPOCH":"2025-09-06T18:46:48.930528","MEAN_MOTION":15.0255392,"ECCENTRICITY":0.00015129,"INCLINATION":43.0024,"RA_OF_ASC_NODE":284.0492,"ARG_OF_PERICENTER":281.1457,"MEAN_ANOMALY":78.9215,"EPHEMERIS_TYPE":0,"CLASSIFICATION_TYPE":"U","NORAD_CAT_ID":55581,"ELEMENT_SET_NO":999,"REV_AT_EPOCH":14125,"BSTAR":0.0002026659,"MEAN_MOTION_DOT":2.536e-5,"MEAN_MOTION_DDOT":0},{"OBJECT_NAME":"STARLINK-5741","OBJECT_ID":"2023-020P","EPOCH":"2025-09-06T19:03:10.221984","MEAN_MOTION":15.02539132,"ECCENTRICITY":0.00012944,"INCLINATION":43.0036,"RA_OF_ASC_NODE":271.1669,"ARG_OF_PERICENTER":272.4838,"MEAN_ANOMALY":87.5856,"EPHEMERIS_TYPE":0,"CLASSIFICATION_TYPE":"U","NORAD_CAT_ID":55582,"ELEMENT_SET_NO":999,"REV_AT_EPOCH":14140,"BSTAR":7.7044058e-5,"MEAN_MOTION_DOT":8.37e-6,"MEAN_MOTION_DDOT":0},{"OBJECT_NAME":"STARLINK-5742","OBJECT_ID":"2023-020Q","EPOCH":"2025-09-06T13:50:03.609024","MEAN_MOTION":15.02524449,"ECCENTRICITY":0.00014172,"INCLINATION":43.0033,"RA_OF_ASC_NODE":285.0814,"ARG_OF_PERICENTER":271.5283,"MEAN_ANOMALY":88.5397,"EPHEMERIS_TYPE":0,"CLASSIFICATION_TYPE":"U","NORAD_CAT_ID":55583,"ELEMENT_SET_NO":999,"REV_AT_EPOCH":14122,"BSTAR":2.2287e-5,"MEAN_MOTION_DOT":9.7e-7,"MEAN_MOTION_DDOT":0},{"OBJECT_NAME":"STARLINK-5736","OBJECT_ID":"2023-020R","EPOCH":"2025-09-06T10:35:23.255232","MEAN_MOTION":15.02536377,"ECCENTRICITY":0.00011709,"INCLINATION":43.0035,"RA_OF_ASC_NODE":285.7882,"ARG_OF_PERICENTER":265.3566,"MEAN_ANOMALY":94.7143,"EPHEMERIS_TYPE":0,"CLASSIFICATION_TYPE":"U","NORAD_CAT_ID":55584,"ELEMENT_SET_NO":999,"REV_AT_EPOCH":14120,"BSTAR":0.00013078554,"MEAN_MOTION_DOT":1.564e-5,"MEAN_MOTION_DDOT":0},{"OBJECT_NAME":"STARLINK-5769","OBJECT_ID":"2023-020S","EPOCH":"2025-09-06T12:56:16.060992","MEAN_MOTION":15.02531079,"ECCENTRICITY":0.00012436,"INCLINATION":43.0033,"RA_OF_ASC_NODE":272.7046,"ARG_OF_PERICENTER":285.3371,"MEAN_ANOMALY":74.7334,"EPHEMERIS_TYPE":0,"CLASSIFICATION_TYPE":"U","NORAD_CAT_ID":55585,"ELEMENT_SET_NO":999,"REV_AT_EPOCH":14136,"BSTAR":0.00018705535,"MEAN_MOTION_DOT":2.324e-5,"MEAN_MOTION_DDOT":0},{"OBJECT_NAME":"STARLINK-5767","OBJECT_ID":"2023-020T","EPOCH":"2025-09-06T10:24:12.595968","MEAN_MOTION":15.02548826,"ECCENTRICITY":0.00011806,"INCLINATION":43.0034,"RA_OF_ASC_NODE":285.7321,"ARG_OF_PERICENTER":265.6607,"MEAN_ANOMALY":94.4101,"EPHEMERIS_TYPE":0,"CLASSIFICATION_TYPE":"U","NORAD_CAT_ID":55586,"ELEMENT_SET_NO":999,"REV_AT_EPOCH":14120,"BSTAR":0.0001776739,"MEAN_MOTION_DOT":2.198e-5,"MEAN_MOTION_DDOT":0}]
