STARLINK-5737           
1 55570U 23020B   25249.80470826  .00000974  00000+0  87129-4 0  9996
2 55570  43.0034 284.2170 0001297 268.9582  91.1111 15.02537595141250
STARLINK-5739           
1 55571U 23020C   25249.79915408  .00001283  00000+0  11001-3 0  9994
2 55571  43.0040 284.1756 0001514 273.3970  86.6699 15.02538876141253
STARLINK-5732           
1 55572U 23020D   25249.79471941  .00000659  00000+0  63870-4 0  9992
2 55572  43.0036 284.1402 0001239 267.3917  92.6784 15.02535642141255
STARLINK-5738           
1 55573U 23020E   25249.79582532  .00000932  00000+0  84082-4 0  9994
2 55573  43.0026 284.1512 0001301 267.1505  92.9189 15.02540090141253
STARLINK-5747           
1 55574U 23020F   25249.78584073  .00000337  00000+0  40057-4 0  9999
2 55574  43.0032 284.0745 0001497 271.1674  88.8997 15.02533814141253
STARLINK-5745           
1 55575U 23020G   25249.79138906  .00000092  00000+0  21876-4 0  9997
2 55575  43.0034 284.1140 0001435 271.4930  88.5748 15.02538562141252
STARLINK-5751           
1 55576U 23020H   25249.43289049  .00000297  00000+0  37041-4 0  9992
2 55576  43.0058 259.7376 0001195 266.3589  93.7116 15.02523289141509
STARLINK-5752           
1 55577U 23020J   25249.78805472  .00001867  00000+0  15321-3 0  9995
2 55577  43.0033 284.0252 0001315 263.5547  96.5145 15.02537687141256
STARLINK-5754           
1 55579U 23020L   25249.56864646  .00000677  00000+0  65169-4 0  9995
2 55579  43.0035 285.0262 0001215 265.7648  94.3056 15.02535358141224
STARLINK-5757           
1 55580U 23020M   25249.49713671  .00000651  00000+0  63250-4 0  9991
2 55580  43.0033 259.3596 0001198 266.1858  93.8847 15.02535685141513
STARLINK-5753           
1 55581U 23020N   25249.78251077  .00002536  00000+0  20267-3 0  9995
2 55581  43.0024 284.0492 0001512 281.1457  78.9215 15.02553920141252
STARLINK-5741           
1 55582U 23020P   25249.79386831  .00000837  00000+0  77044-4 0  9992
2 55582  43.0036 271.1669 0001294 272.4838  87.5856 15.02539132141405
STARLINK-5742           
1 55583U 23020Q   25249.57643066  .00000097  00000+0  22287-4 0  9992
2 55583  43.0033 285.0814 0001417 271.5283  88.5397 15.02524449141226
STARLINK-5736           
1 55584U 23020R   25249.44124138  .00001564  00000+0  13079-3 0  9991
2 55584  43.0035 285.7882 0001170 265.3566  94.7143 15.02536377141201
STARLINK-5769           
1 55585U 23020S   25249.53907478  .00002324  00000+0  18706-3 0  9995
2 55585  43.0033 272.7046 0001243 285.3371  74.7334 15.02531079141366
STARLINK-5767           
1 55586U 23020T   25249.43347912  .00002198  00000+0  17767-3 0  9991
2 55586  43.0034 285.7321 0001180 265.6607  94.4101 15.02548826141203
